NORAD_CAT_ID,OBJECT_NAME,OBJECT_TYPE,EPOCH,MEAN_MOTION,ECCENTRICITY,INCLINATION,RA_OF_ASC_NODE,ARG_OF_PERICENTER,MEAN_ANOMALY,BSTAR,MEAN_MOTION_DOT,MEAN_MOTION_DDOT,TLE_LINE0,TLE_LINE1,TLE_LINE2,SEMIMAJOR_AXIS,PERIOD,APOGEE,PERIGEE,DECAYED
53570.0,STARLINK-4550,PAYLOAD,2023-01-14 11:28:51,15.08824084,0.0002766,53.2177,177.5183,40.6574,319.4624,4.7696000000000005e-05,4.7e-06,0.0,0 STARLINK-4550,1 53570U 22101AV  23014.47837680  .00000470  00000-0  47696-4 0  9996,2 53570  53.2177 177.5183 0002766  40.6574 319.4624 15.08824084 22807,6917.929,95.439,541.7080000000001,537.881,0.0
53570.0,STARLINK-4550,PAYLOAD,2023-01-14 17:50:23,15.08831748,0.0002712,53.2189,176.3286,31.4701,328.6453,8.1236e-05,1.004e-05,0.0,0 STARLINK-4550,1 53570U 22101AV  23014.74333264  .00001004  00000-0  81236-4 0  9997,2 53570  53.2189 176.3286 0002712  31.4701 328.6453 15.08831748 22843,6917.906,95.438,541.6469999999999,537.894,0.0
53570.0,STARLINK-4550,PAYLOAD,2023-01-15 11:19:39,15.08832006,0.0002736,53.2185,173.0584,39.8363,320.2829,-1.9021e-05,-5.91e-06,0.0,0 STARLINK-4550,1 53570U 22101AV  23015.47197995 -.00000591  00000-0 -19021-4 0  9992,2 53570  53.2185 173.0584 0002736  39.8363 320.2829 15.08832006 23648,6917.905,95.438,541.663,537.877,0.0
53570.0,STARLINK-4550,PAYLOAD,2023-01-15 19:16:33,15.08844276,0.0002785,53.219,171.5709,39.9884,320.1312,6.6e-05,7.62e-06,0.0,0 STARLINK-4550,1 53570U 22101AV  23015.80316984  .00000762  00000-0  66000-4 0  9997,2 53570  53.2190 171.5709 0002785  39.9884 320.1312 15.08844276 23007,6917.866999999999,95.437,541.659,537.806,0.0
53570.0,STARLINK-4550,PAYLOAD,2023-01-16 11:10:25,15.08837122,0.0002728,53.2178,168.5981,47.6011,312.5211,6.1725e-05,6.94e-06,0.0,0 STARLINK-4550,1 53570U 22101AV  23016.46557466  .00000694  00000-0  61725-4 0  9995,2 53570  53.2178 168.5981 0002728  47.6011 312.5211 15.08837122 23102,6917.889,95.438,541.641,537.867,0.0
53570.0,STARLINK-4550,PAYLOAD,2023-01-16 19:07:20,15.08847182,0.0002721,53.2187,167.1113,47.7173,312.405,9.1902e-05,1.175e-05,0.0,0 STARLINK-4550,1 53570U 22101AV  23016.79676687  .00001175  00000-0  91902-4 0  9993,2 53570  53.2187 167.1113 0002721  47.7173 312.4050 15.08847182 23159,6917.858,95.437,541.606,537.841,0.0
53570.0,STARLINK-4550,PAYLOAD,2023-01-17 09:25:50,15.08828818,0.0002376999999999,53.2203,164.4361,52.3745,307.7462,-4.4875e-05,-1.002e-05,0.0,0 STARLINK-4550,1 53570U 22101AV  23017.39294390 -.00001002  00000-0 -44875-4 0  9995,2 53570  53.2203 164.4361 0002377  52.3745 307.7462 15.08828818 23246,6917.915,95.438,541.424,538.135,0.0
53570.0,STARLINK-4550,PAYLOAD,2023-01-17 18:58:08,15.08837956,0.0002519,53.2181,162.6502,53.353,306.7694,-3.0591e-05,-7.75e-06,0.0,0 STARLINK-4550,1 53570U 22101AV  23017.79037892 -.00000775  00000-0 -30591-4 0  9997,2 53570  53.2181 162.6502 0002519  53.3530 306.7694 15.08837956 23305,6917.887,95.438,541.494,538.009,0.0
53570.0,STARLINK-4550,PAYLOAD,2023-01-18 14:02:46,15.08837558,0.0002722,53.2196,159.0837,46.2483,313.8734,-1.508e-05,-5.29e-06,0.0,0 STARLINK-4550,1 53570U 22101AV  23018.58526068 -.00000529  00000-0 -15080-4 0  9996,2 53570  53.2196 159.0837 0002722  46.2483 313.8734 15.08837558 24118,6917.888000000001,95.438,541.636,537.87,0.0
53570.0,STARLINK-4550,PAYLOAD,2023-01-18 15:38:09,15.08836658,0.0002278999999999,53.2199,158.7863,49.6516,310.4675,-1.1507e-05,-4.71e-06,0.0,0 STARLINK-4550,1 53570U 22101AV  23018.65150053 -.00000471  00000-0 -11507-4 0  9997,2 53570  53.2199 158.7863 0002279  49.6516 310.4675 15.08836658 24125,6917.891,95.438,541.332,538.179,0.0
53570.0,STARLINK-4550,PAYLOAD,2023-01-19 02:45:51,15.08841094,0.0002416,53.22,156.7029,54.3001,305.8215,-6.5103e-05,-1.324e-05,0.0,0 STARLINK-4550,1 53570U 22101AV  23019.11517765 -.00001324  00000-0 -65103-4 0  9995,2 53570  53.2200 156.7029 0002416  54.3001 305.8215 15.08841094 23504,6917.877,95.437,541.413,538.071,0.0
53570.0,STARLINK-4550,PAYLOAD,2023-01-19 12:18:13,15.08800396,0.0002508999999999,53.2188,154.9203,58.076,302.0476,-0.00023168,-3.97e-05,0.0,0 STARLINK-4550,1 53570U 22101AV  23019.51265651 -.00003970  00000-0 -23168-3 0  9996,2 53570  53.2188 154.9203 0002509  58.0760 302.0476 15.08800396 24250,6918.001,95.44,541.602,538.131,0.0
53570.0,STARLINK-4550,PAYLOAD,2023-01-19 18:39:43,15.08831371,0.0002236,53.2183,153.7292,66.0756,294.047,3.0502e-05,1.97e-06,0.0,0 STARLINK-4550,1 53570U 22101AV  23019.77759164  .00000197  00000-0  30502-4 0  9998,2 53570  53.2183 153.7292 0002236  66.0756 294.0470 15.08831371 23600,6917.906999999999,95.438,541.319,538.225,0.0
53570.0,STARLINK-4550,PAYLOAD,2023-01-20 12:08:56,15.08863255,0.000217,53.2194,150.4597,66.7444,293.3776,0.00021482,3.134e-05,0.0,0 STARLINK-4550,1 53570U 22101AV  23020.50620447  .00003134  00000-0  21482-3 0  9992,2 53570  53.2194 150.4597 0002170  66.7444 293.3776 15.08863255 23711,6917.809,95.436,541.175,538.173,0.0
53570.0,STARLINK-4550,PAYLOAD,2023-01-21 00:52:02,15.08845058,0.0002275,53.2193,148.0796,55.0289,305.0916,7.989e-05,9.84e-06,0.0,0 STARLINK-4550,1 53570U 22101AV  23021.03613640  .00000984  00000-0  79890-4 0  9995,2 53570  53.2193 148.0796 0002275  55.0289 305.0916 15.08845058 23794,6917.865,95.437,541.304,538.156,0.0
53570.0,STARLINK-4550,PAYLOAD,2023-01-21 15:10:31,15.08825954,0.0002075,53.2192,145.404,60.0532,300.0666,0.00027365,4.068e-05,0.0,0 STARLINK-4550,1 53570U 22101AV  23021.63230693  .00004068  00000-0  27365-3 0  9990,2 53570  53.2192 145.4040 0002075  60.0532 300.0666 15.08825954 23881,6917.923000000001,95.438,541.224,538.3530000000001,0.0
53570.0,STARLINK-4550,PAYLOAD,2023-01-22 10:15:08,15.08851873,0.000202,53.2188,141.8369,60.6162,299.5032,-0.00017186,-3.023e-05,0.0,0 STARLINK-4550,1 53570U 22101AV  23022.42718529 -.00003023  00000-0 -17186-3 0  9999,2 53570  53.2188 141.8369 0002020  60.6162 299.5032 15.08851873 24008,6917.844,95.437,541.107,538.312,0.0
53570.0,STARLINK-4550,PAYLOAD,2023-01-22 16:36:40,15.08865514,0.0002061999999999,53.2186,140.6478,59.5608,300.5588,-3.1165e-05,-7.85e-06,0.0,0 STARLINK-4550,1 53570U 22101AV  23022.69212972 -.00000785  00000-0 -31165-4 0  9995,2 53570  53.2186 140.6478 0002062  59.5608 300.5588 15.08865514 24042,6917.802,95.436,541.094,538.241,0.0
53570.0,STARLINK-4550,PAYLOAD,2023-01-23 00:33:36,15.08848052,0.0002255999999999,53.2191,139.1601,69.9255,290.198,-0.00017797,-3.12e-05,0.0,0 STARLINK-4550,1 53570U 22101AV  23023.02334250 -.00003120  00000-0 -17797-3 0  9997,2 53570  53.2191 139.1601 0002256  69.9255 290.1980 15.08848052 24090,6917.856,95.437,541.281,538.16,0.0
53570.0,STARLINK-4550,PAYLOAD,2023-01-23 10:05:56,15.08826818,0.0002023,53.218,137.3762,77.3773,282.7445,4.8073e-05,4.77e-06,0.0,0 STARLINK-4550,1 53570U 22101AV  23023.42078809  .00000477  00000-0  48073-4 0  9998,2 53570  53.2180 137.3762 0002023  77.3773 282.7445 15.08826818 24152,6917.920999999999,95.438,541.185,538.386,0.0
53570.0,STARLINK-4550,PAYLOAD,2023-01-24 11:32:05,15.0884533,0.0001393,53.2176,132.6224,80.2857,279.8292,-2.2058e-05,-6.39e-06,0.0,0 STARLINK-4550,1 53570U 22101AV  23024.48062187 -.00000639  00000-0 -22058-4 0  9994,2 53570  53.2176 132.6224 0001393  80.2857 279.8292 15.08845330 24318,6917.8640000000005,95.437,540.693,538.765,0.0
53570.0,STARLINK-4550,PAYLOAD,2023-01-25 11:22:53,15.08833446,0.0001509,53.2186,128.1603,92.0258,268.0907,1.8534e-05,7e-08,0.0,0 STARLINK-4550,1 53570U 22101AV  23025.47422887  .00000007  00000-0  18534-4 0  9992,2 53570  53.2186 128.1603 0001509  92.0258 268.0907 15.08833446 24469,6917.9,95.438,540.809,538.722,0.0
53570.0,STARLINK-4550,PAYLOAD,2023-01-25 12:58:16,15.08838312,0.000132,53.2182,127.8625,95.759,264.3553,2.4675e-05,1.05e-06,0.0,0 STARLINK-4550,1 53570U 22101AV  23025.54046498  .00000105  00000-0  24675-4 0  9992,2 53570  53.2182 127.8625 0001320  95.7590 264.3553 15.08838312 25166,6917.886,95.438,540.664,538.837,0.0
53570.0,STARLINK-4550,PAYLOAD,2023-01-26 12:49:02,15.08848894,0.0001539,53.219,123.4029,74.57300000000001,285.5432,1.6851e-05,-2e-07,0.0,0 STARLINK-4550,1 53570U 22101AV  23026.53406027 -.00000020  00000-0  16851-4 0  9994,2 53570  53.2190 123.4029 0001539  74.5730 285.5432 15.08848894 24625,6917.853,95.437,540.783,538.654,0.0
53570.0,STARLINK-4550,PAYLOAD,2023-01-27 09:29:03,15.08838282,0.0001229,53.2187,119.5344,119.4946,240.6169,-1.1016e-05,-4.63e-06,0.0,0 STARLINK-4550,1 53570U 22101AV  23027.39518474 -.00000463  00000-0 -11016-4 0  9999,2 53570  53.2187 119.5344 0001229 119.4946 240.6169 15.08838282 24754,6917.886,95.438,540.601,538.9,0.0
53570.0,STARLINK-4550,PAYLOAD,2023-01-27 12:39:50,15.08841385,0.0001424,53.2185,118.9392,117.5528,242.5608,1.1749e-05,-1.01e-06,0.0,0 STARLINK-4550,1 53570U 22101AV  23027.52766247 -.00000101  00000-0  11749-4 0  9998,2 53570  53.2185 118.9392 0001424 117.5528 242.5608 15.08841385 25466,6917.876,95.437,540.726,538.756,0.0
53570.0,STARLINK-4550,PAYLOAD,2023-01-28 12:30:37,15.08843932,0.0001234,53.2191,114.4795,83.1748,276.9385,-4.0842e-05,-9.38e-06,0.0,0 STARLINK-4550,1 53570U 22101AV  23028.52126501 -.00000938  00000-0 -40842-4 0  9997,2 53570  53.2191 114.4795 0001234  83.1748 276.9385 15.08843932 24925,6917.868,95.437,540.587,538.88,0.0
53570.0,STARLINK-4550,PAYLOAD,2023-01-28 14:06:00,15.08845257,0.0001265,53.2192,114.1831,83.5098,276.6038,-2.0035e-05,-6.07e-06,0.0,0 STARLINK-4550,1 53570U 22101AV  23028.58750346 -.00000607  00000-0 -20035-4 0  9998,2 53570  53.2192 114.1831 0001265  83.5098 276.6038 15.08845257 25622,6917.864,95.437,540.604,538.854,0.0
53570.0,STARLINK-4550,PAYLOAD,2023-01-28 15:41:23,15.08845972,0.0001247,53.2186,113.8869,79.5185,280.5948,-9.7996e-07,-3.03e-06,0.0,0 STARLINK-4550,1 53570U 22101AV  23028.65374208 -.00000303  00000-0 -97996-6 0  9990,2 53570  53.2186 113.8869 0001247  79.5185 280.5948 15.08845972 25633,6917.862,95.437,540.59,538.864,0.0
